GLOBALSTAR M063         
1 26081U 00008A   25066.18392547 -.00000068  00000+0  21153-3 0  9992
2 26081  51.9983  20.2101 0004938 116.1769 257.2376 11.86166686145477
GLOBALSTAR M062         
1 26082U 00008B   25066.37270330 -.00000085  00000+0  90722-4 0  9997
2 26082  51.9865  35.1848 0006671 255.0606 228.7062 12.43459750483953
GLOBALSTAR M060         
1 26083U 00008C   25066.21559954 -.00000148  00000+0 -57177-3 0  9990
2 26083  52.0050 341.2322 0002816 283.6005 233.6611 12.17657065140110
GLOBALSTAR M064         
1 26084U 00008D   25066.38299972 -.00000061  00000+0  31849-3 0  9991
2 26084  52.0019 119.7158 0001668 203.8028 156.2727 11.88530378154997
GLOBALSTAR M069         
1 31573U 07020C   25065.71067149 -.00000066  00000+0  23064-3 0  9991
2 31573  51.9941 143.3088 0001252 117.8425  22.3119 12.44935551821430
GLOBALSTAR M072         
1 31574U 07020D   25066.77486209 -.00000093  00000+0 -11936-3 0  9997
2 31574  52.0136 261.9357 0001973 118.5120 325.9441 11.91776884819716
GLOBALSTAR M071         
1 31576U 07020F   25066.56458433 -.00000003  00000+0  86838-3 0  9997
2 31576  52.0055 155.5883 0000622 200.3837 264.4500 12.18249808821464
